start=new Date('2022-10-20T00:00:00.000Z').valueOf();
sats=[{"MEAN_MOTION_DDOT":"0.0000000000000","TLE_LINE2":"2 48297  53.0551 234.0492 0001727  56.9747 303.1407 15.06409591 81894","PERIAPSIS":"545.988","PERIOD":"95.592","OBJECT_NAME":"STARLINK-2544","MEAN_ANOMALY":"303.1407","APOAPSIS":"548.380","OBJECT_ID":"2021-036X","MEAN_MOTION_DOT":"-0.00001013","TIME_SYSTEM":"UTC","MEAN_MOTION":"15.06409591","LAUNCH_DATE":"2021-04-29","ELEMENT_SET_NO":"999","CENTER_NAME":"EARTH","REF_FRAME":"TEME","OBJECT_TYPE":"PAYLOAD","FILE":"3623738","NORAD_CAT_ID":"48297","CLASSIFICATION_TYPE":"U","ARG_OF_PERICENTER":"56.9747","COUNTRY_CODE":"US","BSTAR":"-0.00004912500000","GP_ID":"215621662","SITE":"AFETR","RCS_SIZE":"LARGE","MEAN_ELEMENT_THEORY":"SGP4","RA_OF_ASC_NODE":"234.0492","TLE_LINE1":"1 48297U 21036X   22292.84056323 -.00001013  00000-0 -49125-4 0  9992","EPOCH":"2022-10-19T20:10:24.663072","EPHEMERIS_TYPE":"0","ECCENTRICITY":"0.00017270","INCLINATION":"53.0551","REV_AT_EPOCH":"8189","DECAY_DATE":null,"SEMIMAJOR_AXIS":"6925.319"},{"EPOCH":"2022-10-19T13:42:57.510144","EPHEMERIS_TYPE":"0","ECCENTRICITY":"0.00016810","INCLINATION":"53.0557","REV_AT_EPOCH":"8185","DECAY_DATE":null,"SEMIMAJOR_AXIS":"6925.350","CLASSIFICATION_TYPE":"U","NORAD_CAT_ID":"48298","ARG_OF_PERICENTER":"59.6817","COUNTRY_CODE":"US","BSTAR":"0.00021466000000","GP_ID":"215619915","SITE":"AFETR","RCS_SIZE":"LARGE","MEAN_ELEMENT_THEORY":"SGP4","RA_OF_ASC_NODE":"235.2694","TLE_LINE1":"1 48298U 21036Y   22292.57149896  .00002917  00000-0  21466-3 0  9990","TIME_SYSTEM":"UTC","MEAN_MOTION":"15.06399546","LAUNCH_DATE":"2021-04-29","ELEMENT_SET_NO":"999","CENTER_NAME":"EARTH","REF_FRAME":"TEME","OBJECT_TYPE":"PAYLOAD","FILE":"3623738","MEAN_MOTION_DDOT":"0.0000000000000","TLE_LINE2":"2 48298  53.0557 235.2694 0001681  59.6817 300.4338 15.06399546 81852","PERIOD":"95.592","PERIAPSIS":"546.051","OBJECT_NAME":"STARLINK-2559","MEAN_ANOMALY":"300.4338","APOAPSIS":"548.379","OBJECT_ID":"2021-036Y","MEAN_MOTION_DOT":"0.00002917"},{"PERIAPSIS":"546.069","PERIOD":"95.592","TLE_LINE2":"2 48299  53.0547 234.0765 0001628  70.3677 289.7488 15.06405639 81893","MEAN_MOTION_DDOT":"0.0000000000000","MEAN_MOTION_DOT":"0.00001295","APOAPSIS":"548.324","OBJECT_ID":"2021-036Z","MEAN_ANOMALY":"289.7488","OBJECT_NAME":"STARLINK-2557","MEAN_MOTION":"15.06405639","TIME_SYSTEM":"UTC","FILE":"3623738","REF_FRAME":"TEME","OBJECT_TYPE":"PAYLOAD","CENTER_NAME":"EARTH","ELEMENT_SET_NO":"999","LAUNCH_DATE":"2021-04-29","GP_ID":"215620165","BSTAR":"0.00010579000000","COUNTRY_CODE":"US","ARG_OF_PERICENTER":"70.3677","CLASSIFICATION_TYPE":"U","NORAD_CAT_ID":"48299","TLE_LINE1":"1 48299U 21036Z   22292.83318980  .00001295  00000-0  10579-3 0  9993","RA_OF_ASC_NODE":"234.0765","MEAN_ELEMENT_THEORY":"SGP4","RCS_SIZE":"LARGE","SITE":"AFETR","ECCENTRICITY":"0.00016280","EPHEMERIS_TYPE":"0","EPOCH":"2022-10-19T19:59:47.598720","SEMIMAJOR_AXIS":"6925.331","DECAY_DATE":null,"REV_AT_EPOCH":"8189","INCLINATION":"53.0547"},{"MEAN_MOTION_DDOT":"0.0000000000000","TLE_LINE2":"2 48300  53.0527 243.8078 0001682  59.8696 300.2460 15.06394843 81761","PERIOD":"95.592","PERIAPSIS":"546.065","MEAN_ANOMALY":"300.2460","OBJECT_NAME":"STARLINK-2538","OBJECT_ID":"2021-036AA","APOAPSIS":"548.394","MEAN_MOTION_DOT":"0.00000362","TIME_SYSTEM":"UTC","MEAN_MOTION":"15.06394843","LAUNCH_DATE":"2021-04-29","ELEMENT_SET_NO":"999","CENTER_NAME":"EARTH","FILE":"3623738","REF_FRAME":"TEME","OBJECT_TYPE":"PAYLOAD","COUNTRY_CODE":"US","ARG_OF_PERICENTER":"59.8696","CLASSIFICATION_TYPE":"U","NORAD_CAT_ID":"48300","GP_ID":"215621416","BSTAR":"0.00004324100000","RCS_SIZE":"LARGE","SITE":"AFETR","MEAN_ELEMENT_THEORY":"SGP4","RA_OF_ASC_NODE":"243.8078","TLE_LINE1":"1 48300U 21036AA  22292.89124719  .00000362  00000-0  43241-4 0  9994","EPHEMERIS_TYPE":"0","ECCENTRICITY":"0.00016820","EPOCH":"2022-10-19T21:23:23.757216","INCLINATION":"53.0527","DECAY_DATE":null,"SEMIMAJOR_AXIS":"6925.364","REV_AT_EPOCH":"8176"},{"CLASSIFICATION_TYPE":"U","NORAD_CAT_ID":"48301","ARG_OF_PERICENTER":"73.0289","COUNTRY_CODE":"US","BSTAR":"0.00003973000000","GP_ID":"215621163","SITE":"AFETR","RCS_SIZE":"LARGE","RA_OF_ASC_NODE":"243.8478","MEAN_ELEMENT_THEORY":"SGP4","TLE_LINE1":"1 48301U 21036AB  22292.88756221  .00000310  00000-0  39730-4 0  9994","EPOCH":"2022-10-19T21:18:05.374944","ECCENTRICITY":"0.00014170","EPHEMERIS_TYPE":"0","INCLINATION":"53.0543","REV_AT_EPOCH":"8175","SEMIMAJOR_AXIS":"6925.336","DECAY_DATE":null,"MEAN_MOTION_DDOT":"0.0000000000000","TLE_LINE2":"2 48301  53.0543 243.8478 0001417  73.0289 287.0856 15.06404136 81753","PERIAPSIS":"546.220","PERIOD":"95.592","OBJECT_NAME":"STARLINK-2537","MEAN_ANOMALY":"287.0856","OBJECT_ID":"2021-036AB","APOAPSIS":"548.182","MEAN_MOTION_DOT":"0.00000310","TIME_SYSTEM":"UTC","MEAN_MOTION":"15.06404136","LAUNCH_DATE":"2021-04-29","ELEMENT_SET_NO":"999","CENTER_NAME":"EARTH","OBJECT_TYPE":"PAYLOAD","REF_FRAME":"TEME","FILE":"3623738"},{"INCLINATION":"53.0548","REV_AT_EPOCH":"8166","DECAY_DATE":null,"SEMIMAJOR_AXIS":"6925.338","EPOCH":"2022-10-19T06:52:55.229376","EPHEMERIS_TYPE":"0","ECCENTRICITY":"0.00015150","SITE":"AFETR","RCS_SIZE":"LARGE","RA_OF_ASC_NODE":"246.5294","MEAN_ELEMENT_THEORY":"SGP4","TLE_LINE1":"1 48302U 21036AC  22292.28675034 -.00001063  00000-0 -52485-4 0  9991","CLASSIFICATION_TYPE":"U","NORAD_CAT_ID":"48302","ARG_OF_PERICENTER":"64.8127","COUNTRY_CODE":"US","BSTAR":"-0.00005248500000","GP_ID":"215580131","LAUNCH_DATE":"2021-04-29","ELEMENT_SET_NO":"999","CENTER_NAME":"EARTH","REF_FRAME":"TEME","OBJECT_TYPE":"PAYLOAD","FILE":"3623062","TIME_SYSTEM":"UTC","MEAN_MOTION":"15.06403523","OBJECT_NAME":"STARLINK-2556","MEAN_ANOMALY":"295.3019","APOAPSIS":"548.252","OBJECT_ID":"2021-036AC","MEAN_MOTION_DOT":"-0.00001063","MEAN_MOTION_DDOT":"0.0000000000000","TLE_LINE2":"2 48302  53.0548 246.5294 0001515  64.8127 295.3019 15.06403523 81665","PERIOD":"95.592","PERIAPSIS":"546.154"},{"COUNTRY_CODE":"US","ARG_OF_PERICENTER":"63.2155","NORAD_CAT_ID":"48303","CLASSIFICATION_TYPE":"U","GP_ID":"215620665","BSTAR":"0.00002870700000","RCS_SIZE":"LARGE","SITE":"AFETR","RA_OF_ASC_NODE":"245.0663","MEAN_ELEMENT_THEORY":"SGP4","TLE_LINE1":"1 48303U 21036AD  22292.61385405  .00000146  00000-0  28707-4 0  9998","ECCENTRICITY":"0.00015730","EPHEMERIS_TYPE":"0","EPOCH":"2022-10-19T14:43:56.989920","INCLINATION":"53.0559","SEMIMAJOR_AXIS":"6925.347","DECAY_DATE":null,"REV_AT_EPOCH":"8171","MEAN_MOTION_DDOT":"0.0000000000000","TLE_LINE2":"2 48303  53.0559 245.0663 0001573  63.2155 296.8995 15.06400499 81714","PERIAPSIS":"546.123","PERIOD":"95.592","MEAN_ANOMALY":"296.8995","OBJECT_NAME":"STARLINK-2530","OBJECT_ID":"2021-036AD","APOAPSIS":"548.301","MEAN_MOTION_DOT":"0.00000146","TIME_SYSTEM":"UTC","MEAN_MOTION":"15.06400499","LAUNCH_DATE":"2021-04-29","ELEMENT_SET_NO":"999","CENTER_NAME":"EARTH","FILE":"3623738","REF_FRAME":"TEME","OBJECT_TYPE":"PAYLOAD"},{"ELEMENT_SET_NO":"999","LAUNCH_DATE":"2021-04-29","OBJECT_TYPE":"PAYLOAD","REF_FRAME":"TEME","FILE":"3623062","CENTER_NAME":"EARTH","MEAN_MOTION":"15.06391881","TIME_SYSTEM":"UTC","OBJECT_ID":"2021-036AE","APOAPSIS":"548.299","OBJECT_NAME":"STARLINK-2524","MEAN_ANOMALY":"294.0370","MEAN_MOTION_DOT":"-0.00000398","MEAN_MOTION_DDOT":"0.0000000000000","PERIAPSIS":"546.177","PERIOD":"95.593","TLE_LINE2":"2 48304  53.0548 246.5672 0001532  66.0780 294.0370 15.06391881 81664","REV_AT_EPOCH":"8166","SEMIMAJOR_AXIS":"6925.373","DECAY_DATE":null,"INCLINATION":"53.0548","EPOCH":"2022-10-19T06:42:18.692064","ECCENTRICITY":"0.00015320","EPHEMERIS_TYPE":"0","SITE":"AFETR","RCS_SIZE":"LARGE","TLE_LINE1":"1 48304U 21036AE  22292.27938301 -.00000398  00000-0 -78045-5 0  9992","RA_OF_ASC_NODE":"246.5672","MEAN_ELEMENT_THEORY":"SGP4","NORAD_CAT_ID":"48304","CLASSIFICATION_TYPE":"U","ARG_OF_PERICENTER":"66.0780","COUNTRY_CODE":"US","GP_ID":"215579130","BSTAR":"-0.00000780450000"},{"ELEMENT_SET_NO":"999","LAUNCH_DATE":"2021-04-29","FILE":"3623062","REF_FRAME":"TEME","OBJECT_TYPE":"PAYLOAD","CENTER_NAME":"EARTH","MEAN_MOTION":"15.06389107","TIME_SYSTEM":"UTC","APOAPSIS":"548.289","OBJECT_ID":"2021-036AF","MEAN_ANOMALY":"290.6019","OBJECT_NAME":"STARLINK-2519","MEAN_MOTION_DOT":"-0.00000336","MEAN_MOTION_DDOT":"0.0000000000000","PERIAPSIS":"546.205","PERIOD":"95.593","TLE_LINE2":"2 48305  53.0521 246.5909 0001505  69.5131 290.6019 15.06389107 81667","SEMIMAJOR_AXIS":"6925.382","DECAY_DATE":null,"REV_AT_EPOCH":"8166","INCLINATION":"53.0521","ECCENTRICITY":"0.00015050","EPHEMERIS_TYPE":"0","EPOCH":"2022-10-19T06:35:38.938272","RCS_SIZE":"LARGE","SITE":"AFETR","TLE_LINE1":"1 48305U 21036AF  22292.27475623 -.00000336  00000-0 -36774-5 0  9991","MEAN_ELEMENT_THEORY":"SGP4","RA_OF_ASC_NODE":"246.5909","ARG_OF_PERICENTER":"69.5131","COUNTRY_CODE":"US","CLASSIFICATION_TYPE":"U","NORAD_CAT_ID":"48305","BSTAR":"-0.00000367740000","GP_ID":"215579380"},{"ELEMENT_SET_NO":"999","LAUNCH_DATE":"2021-04-29","FILE":"3623062","REF_FRAME":"TEME","OBJECT_TYPE":"PAYLOAD","CENTER_NAME":"EARTH","MEAN_MOTION":"15.06388419","TIME_SYSTEM":"UTC","OBJECT_ID":"2021-036AG","APOAPSIS":"548.597","MEAN_ANOMALY":"300.3635","OBJECT_NAME":"STARLINK-2523","MEAN_MOTION_DOT":"-0.00000615","MEAN_MOTION_DDOT":"0.0000000000000","PERIOD":"95.593","PERIAPSIS":"545.901","TLE_LINE2":"2 48306  53.0566 247.2027 0001947  59.7546 300.3635 15.06388419 81643","SEMIMAJOR_AXIS":"6925.384","DECAY_DATE":null,"REV_AT_EPOCH":"8164","INCLINATION":"53.0566","EPHEMERIS_TYPE":"0","ECCENTRICITY":"0.00019470","EPOCH":"2022-10-19T03:20:37.129632","RCS_SIZE":"LARGE","SITE":"AFETR","TLE_LINE1":"1 48306U 21036AG  22292.13931863 -.00000615  00000-0 -22363-4 0  9998","MEAN_ELEMENT_THEORY":"SGP4","RA_OF_ASC_NODE":"247.2027","ARG_OF_PERICENTER":"59.7546","COUNTRY_CODE":"US","NORAD_CAT_ID":"48306","CLASSIFICATION_TYPE":"U","GP_ID":"215580631","BSTAR":"-0.00002236300000"}];
